{
    "links": {
        "self": "http://www.neowsapp.com/rest/v1/neo/3843675?api_key=iIulBulltgU6a56xZRHN4H3l9WmuAYTsLGpBGhQ2"
    },
    "id": "3843675",
    "neo_reference_id": "3843675",
    "name": "(2019 QB5)",
    "designation": "2019 QB5",
    "nasa_jpl_url": "http://ssd.jpl.nasa.gov/sbdb.cgi?sstr=3843675",
    "absolute_magnitude_h": 20.4,
    "estimated_diameter": {
        "kilometers": {
            "estimated_diameter_min": 0.2210828104,
            "estimated_diameter_max": 0.4943561926
        },
        "meters": {
            "estimated_diameter_min": 221.0828103591,
            "estimated_diameter_max": 494.3561926196
        },
        "miles": {
            "estimated_diameter_min": 0.137374447,
            "estimated_diameter_max": 0.3071786018
        },
        "feet": {
            "estimated_diameter_min": 725.3373275385,
            "estimated_diameter_max": 1621.9035709942
        }
    },
    "is_potentially_hazardous_asteroid": false,
    "close_approach_data": [
        {
            "close_approach_date": "2019-06-13",
            "close_approach_date_full": "2019-Jun-13 04:45",
            "epoch_date_close_approach": 1560401100000,
            "relative_velocity": {
                "kilometers_per_second": "57.9731149074",
                "kilometers_per_hour": "208703.2136667934",
                "miles_per_hour": "129680.0607364584"
            },
            "miss_distance": {
                "astronomical": "0.068538486",
                "lunar": "26.661471054",
                "kilometers": "10253211.51862482",
                "miles": "6371050.208149716"
            },
            "orbiting_body": "Merc"
        },
        {
            "close_approach_date": "2027-09-15",
            "close_approach_date_full": "2027-Sep-15 05:12",
            "epoch_date_close_approach": 1820985120000,
            "relative_velocity": {
                "kilometers_per_second": "32.843781902",
                "kilometers_per_hour": "118237.614847331",
                "miles_per_hour": "73468.2557366652"
            },
            "miss_distance": {
                "astronomical": "0.2871038652",
                "lunar": "111.6834035628",
                "kilometers": "42950126.702687124",
                "miles": "26687971.1953813512"
            },
            "orbiting_body": "Earth"
        }
    ],
    "orbital_data": {
        "orbit_id": "3",
        "orbit_determination_date": "2019-10-03 06:13:40",
        "first_observation_date": "2019-08-24",
        "last_observation_date": "2019-10-01",
        "data_arc_in_days": 38,
        "observations_used": 25,
        "orbit_uncertainty": "7",
        "minimum_orbit_intersection": ".292625",
        "jupiter_tisserand_invariant": "3.186",
        "epoch_osculation": "2459000.5",
        "eccentricity": ".8297646975956853",
        "semi_major_axis": "1.940316426480466",
        "inclination": "42.22678583852038",
        "ascending_node_longitude": "189.5129797159366",
        "orbital_period": "987.2048207083812",
        "perihelion_distance": ".3303103536219614",
        "perihelion_argument": "34.26352371258564",
        "aphelion_distance": "3.55032249933897",
        "perihelion_time": "2458652.557126353183",
        "mean_anomaly": "126.8829242780363",
        "mean_motion": ".3646659664219199",
        "equinox": "J2000",
        "orbit_class": {
            "orbit_class_type": "APO",
            "orbit_class_description": "Near-Earth asteroid orbits which cross the Earth’s orbit similar to that of 1862 Apollo",
            "orbit_class_range": "a (semi-major axis) > 1.0 AU; q (perihelion) < 1.017 AU"
        }
    },
    "is_sentry_object": false
}